{"type": "FeatureCollection", "features": [ {"type": "Feature", "properties": {"norad_id": 64202, "name": "GPS BIII-8  (PRN 21)", "group": "gnss", "lat": 48.18935301467354, "lon": 89.79691033896215, "alt_km": 20183.745153902357, "timestamp": "2025-12-14T16:47:40.927834+00:00", "meta": {"OBJECT_NAME": "GPS BIII-8  (PRN 21)", "OBJECT_ID": "2025-116A", "EPOCH": "2025-12-13T02:48:10.465056", "MEAN_MOTION": 2.00558313, "ECCENTRICITY": 0.00055988, "INCLINATION": 55.106, "RA_OF_ASC_NODE": 38.6253, "ARG_OF_PERICENTER": 307.9903, "MEAN_ANOMALY": 54.3389, "EPHEMERIS_TYPE": 0, "CLASSIFICATION_TYPE": "U", "NORAD_CAT_ID": 64202, "ELEMENT_SET_NO": 999, "REV_AT_EPOCH": 414, "BSTAR": 0, "MEAN_MOTION_DOT": -9.8e-07, "MEAN_MOTION_DDOT": 0}, "tle": {"line1": "1 64202U 25116A   25347.11678779 -.00000098  00000+0  00000+0 0  9992", "line2": "2 64202  55.1060  38.6253 0005598 307.9903  54.3389  2.00558313  4146"}}, "geometry": {"type": "Point", "coordinates": [89.79691033896215, 48.18935301467354]}}, {"type": "Feature", "properties": {"norad_id": 65590, "name": "COSMOS 2596 (708K)", "group": "gnss", "lat": 62.4106385778122, "lon": 76.80259562485419, "alt_km": 19155.75347671891, "timestamp": "2025-12-14T16:47:40.927849+00:00", "meta": {"OBJECT_NAME": "COSMOS 2596 (708K)", "OBJECT_ID": "2025-206B", "EPOCH": "2025-12-13T20:50:15.808128", "MEAN_MOTION": 2.13100516, "ECCENTRICITY": 0.00140406, "INCLINATION": 64.7435, "RA_OF_ASC_NODE": 321.4347, "ARG_OF_PERICENTER": 306.4952, "MEAN_ANOMALY": 236.937, "EPHEMERIS_TYPE": 0, "CLASSIFICATION_TYPE": "U", "NORAD_CAT_ID": 65590, "ELEMENT_SET_NO": 999, "REV_AT_EPOCH": 196, "BSTAR": 0, "MEAN_MOTION_DOT": -6.4e-07, "MEAN_MOTION_DDOT": 0}, "tle": {"line1": "1 65590U 25206B   25347.86823852 -.00000064  00000+0  00000+0 0  9992", "line2": "2 65590  64.7435 321.4347 0014040 306.4952 236.9370  2.13100516  1963"}}, "geometry": {"type": "Point", "coordinates": [76.80259562485419, 62.4106385778122]}}]}